NORAD_CAT_ID,OBJECT_NAME,OBJECT_TYPE,EPOCH,MEAN_MOTION,ECCENTRICITY,INCLINATION,RA_OF_ASC_NODE,ARG_OF_PERICENTER,MEAN_ANOMALY,BSTAR,MEAN_MOTION_DOT,MEAN_MOTION_DDOT,TLE_LINE0,TLE_LINE1,TLE_LINE2,SEMIMAJOR_AXIS,PERIOD,APOGEE,PERIGEE,DECAYED
53731.0,STARLINK-4636,PAYLOAD,2023-01-10 11:18:03,15.08818253,0.0002763,53.2203,35.7605,14.0166,346.0902,-0.0010523,-0.00016988,0.0,0 STARLINK-4636,1 53731U 22107AH  23010.47086912 -.00016988  00000-0 -10523-2 0  9991,2 53731  53.2203  35.7605 0002763  14.0166 346.0902 15.08818253 19700,6917.946999999999,95.439,541.7230000000002,537.9,0.0
53731.0,STARLINK-4636,PAYLOAD,2023-01-11 06:22:41,15.08834273,0.0003334,53.2194,32.1932,17.801,342.3098,0.00052844,8.131e-05,0.0,0 STARLINK-4636,1 53731U 22107AH  23011.26575689  .00008131  00000-0  52844-3 0  9995,2 53731  53.2194  32.1932 0003334  17.8010 342.3098 15.08834273 19825,6917.898,95.438,542.069,537.456,0.0
53731.0,STARLINK-4636,PAYLOAD,2023-01-11 07:58:04,15.08837735,0.0002127,53.2203,31.8952,40.4668,319.6482,0.00049293,7.565e-05,0.0,0 STARLINK-4636,1 53731U 22107AH  23011.33199364  .00007565  00000-0  49293-3 0  9999,2 53731  53.2203  31.8952 0002127  40.4668 319.6482 15.08837735 20466,6917.887,95.438,541.224,538.281,0.0
53731.0,STARLINK-4636,PAYLOAD,2023-01-12 17:21:10,15.08841324,0.0002165,53.2195,25.6476,42.6554,317.4606,0.0003933,5.977e-05,0.0,0 STARLINK-4636,1 53731U 22107AH  23012.72303931  .00005977  00000-0  39330-3 0  9996,2 53731  53.2195  25.6476 0002165  42.6554 317.4606 15.08841324 20045,6917.876,95.437,541.239,538.244,0.0
53731.0,STARLINK-4636,PAYLOAD,2023-01-13 07:39:39,15.08840386,0.0002109999999999,53.2203,22.9746,50.1229,309.9949,0.00021967,3.21e-05,0.0,0 STARLINK-4636,1 53731U 22107AH  23013.31920169  .00003210  00000-0  21967-3 0  9995,2 53731  53.2203  22.9746 0002110  50.1229 309.9949 15.08840386 20131,6917.879,95.438,541.2040000000001,538.285,0.0
53731.0,STARLINK-4636,PAYLOAD,2023-01-14 17:02:44,15.08848445,0.0001561999999999,53.2187,16.7268,68.0247,292.0911,0.00047892,7.344e-05,0.0,0 STARLINK-4636,1 53731U 22107AH  23014.71024069  .00007344  00000-0  47892-3 0  9991,2 53731  53.2187  16.7268 0001562  68.0247 292.0911 15.08848445 20348,6917.855,95.437,540.8,538.639,0.0
53731.0,STARLINK-4636,PAYLOAD,2023-01-14 23:24:17,15.08838792,0.0001706,53.2194,15.539,68.3607,291.7567,0.00026729,3.968e-05,0.0,0 STARLINK-4636,1 53731U 22107AH  23014.97520270  .00003968  00000-0  26729-3 0  9998,2 53731  53.2194  15.5390 0001706  68.3607 291.7567 15.08838792 20383,6917.884,95.438,540.929,538.569,0.0
53731.0,STARLINK-4636,PAYLOAD,2023-01-15 08:56:36,15.08842329,0.0001685,53.219,13.7541,69.2432,290.8741,0.00062277,9.638e-05,0.0,0 STARLINK-4636,1 53731U 22107AH  23015.37264431  .00009638  00000-0  62277-3 0  9995,2 53731  53.2190  13.7541 0001685  69.2432 290.8741 15.08842329 21071,6917.8730000000005,95.437,540.904,538.573,0.0
53731.0,STARLINK-4636,PAYLOAD,2023-01-15 16:53:31,15.08854378,0.000164,53.2188,12.2666,72.79,287.3271,0.00079636,0.00012414,0.0,0 STARLINK-4636,1 53731U 22107AH  23015.70384024  .00012414  00000-0  79636-3 0  9996,2 53731  53.2188  12.2666 0001640  72.7900 287.3271 15.08854378 21122,6917.835999999999,95.437,540.836,538.567,0.0
53731.0,STARLINK-4636,PAYLOAD,2023-01-16 05:36:36,15.08867898,0.0001783,53.2182,9.8903,74.9226,285.1963,0.0011839,0.00018618,0.0,0 STARLINK-4636,1 53731U 22107AH  23016.23375566  .00018618  00000-0  11839-2 0  9998,2 53731  53.2182   9.8903 0001783  74.9226 285.1963 15.08867898 20578,6917.795,95.436,540.894,538.427,0.0
53731.0,STARLINK-4636,PAYLOAD,2023-01-16 07:11:59,15.08873423,0.000175,53.2182,9.593,75.2758,284.8428,0.0013798,0.0002176,0.0,0 STARLINK-4636,1 53731U 22107AH  23016.29999402  .00021760  00000-0  13798-2 0  9993,2 53731  53.2182   9.5930 0001750  75.2758 284.8428 15.08873423 21218,6917.778,95.435,540.854,538.433,0.0
53731.0,STARLINK-4636,PAYLOAD,2023-01-16 16:44:18,15.08849146,0.0001567,53.2193,7.8072,89.4014,270.7158,0.00053155,8.184e-05,0.0,0 STARLINK-4636,1 53731U 22107AH  23016.69743597  .00008184  00000-0  53155-3 0  9996,2 53731  53.2193   7.8072 0001567  89.4014 270.7158 15.08849146 20641,6917.852,95.437,540.8009999999999,538.633,0.0
53731.0,STARLINK-4636,PAYLOAD,2023-01-17 05:27:24,15.08819235,0.0001885999999999,53.2184,5.4277,101.0726,259.0478,0.0015204,0.00023978,0.0,0 STARLINK-4636,1 53731U 22107AH  23017.22736859  .00023978  00000-0  15204-2 0  9999,2 53731  53.2184   5.4277 0001886 101.0726 259.0478 15.08819235 20727,6917.944,95.439,541.114,538.504,0.0
53731.0,STARLINK-4636,PAYLOAD,2023-01-17 08:38:11,15.08818017,0.0001709,53.2183,4.8334,100.0975,260.021,0.0018358,0.00029032,0.0,0 STARLINK-4636,1 53731U 22107AH  23017.35985153  .00029032  00000-0  18358-2 0  9996,2 53731  53.2183   4.8334 0001709 100.0975 260.0210 15.08818017 21377,6917.948,95.439,540.995,538.63,0.0
53731.0,STARLINK-4636,PAYLOAD,2023-01-17 16:35:07,15.08825491,0.0001786,53.2184,3.3454,103.408,256.7111,0.0012565999999999,0.00019759,0.0,0 STARLINK-4636,1 53731U 22107AH  23017.69105622  .00019759  00000-0  12566-2 0  9998,2 53731  53.2184   3.3454 0001786 103.4080 256.7111 15.08825491 20795,6917.925,95.438,541.025,538.554,0.0
53731.0,STARLINK-4636,PAYLOAD,2023-01-18 10:04:21,15.08875855,0.0001718,53.2182,0.0758,99.5662,260.5524,0.0022733,0.00036113,0.0,0 STARLINK-4636,1 53731U 22107AH  23018.41969124  .00036113  00000-0  22733-2 0  9994,2 53731  53.2182   0.0758 0001718  99.5662 260.5524 15.08875855 20903,6917.771,95.435,540.8240000000001,538.447,0.0
53731.0,STARLINK-4636,PAYLOAD,2023-01-19 05:08:57,15.08882383,0.0001326,53.2188,356.5075,97.5759,262.5383,0.0017239999999999,0.00027288,0.0,0 STARLINK-4636,1 53731U 22107AH  23019.21455990  .00027288  00000-0  17240-2 0  9994,2 53731  53.2188 356.5075 0001326  97.5759 262.5383 15.08882383 21023,6917.751,95.435,540.533,538.6990000000001,0.0
53731.0,STARLINK-4636,PAYLOAD,2023-01-19 08:19:43,15.08892001,0.000136,53.219,355.912,97.6001,262.5145,0.0019793,0.00031398,0.0,0 STARLINK-4636,1 53731U 22107AH  23019.34703541  .00031398  00000-0  19793-2 0  9998,2 53731  53.2190 355.9120 0001360  97.6001 262.5145 15.08892001 21674,6917.721,95.434,540.5269999999999,538.646,0.0
53731.0,STARLINK-4636,PAYLOAD,2023-01-20 11:21:18,15.088018099999998,0.0001695,53.2197,350.8599,62.098,298.0184,0.0016049,0.0002532,0.0,0 STARLINK-4636,1 53731U 22107AH  23020.47312943  .00025320  00000-0  16049-2 0  9995,2 53731  53.2197 350.8599 0001695  62.0980 298.0184 15.08801810 21213,6917.996999999999,95.44,541.035,538.69,0.0
53731.0,STARLINK-4636,PAYLOAD,2023-01-21 06:25:55,15.08879035,0.0001365,53.2187,347.2892,81.5971,278.5175,0.0025044,0.00039838,0.0,0 STARLINK-4636,1 53731U 22107AH  23021.26800910  .00039838  00000-0  25044-2 0  9993,2 53731  53.2187 347.2892 0001365  81.5971 278.5175 15.08879035 21338,6917.761,95.435,540.57,538.682,0.0
53731.0,STARLINK-4636,PAYLOAD,2023-01-21 14:22:51,15.08856062,0.0002008999999999,53.2196,345.8019,88.391,271.7312,0.00092578,0.00014483,0.0,0 STARLINK-4636,1 53731U 22107AH  23021.59921200  .00014483  00000-0  92578-3 0  9991,2 53731  53.2196 345.8019 0002009  88.3910 271.7312 15.08856062 21385,6917.831,95.437,541.086,538.307,0.0
53731.0,STARLINK-4636,PAYLOAD,2023-01-22 03:05:56,15.088567,0.0001357,53.2193,343.42400000000004,102.8,257.3144,0.0015900999999999,0.00025121,0.0,0 STARLINK-4636,1 53731U 22107AH  23022.12912864  .00025121  00000-0  15901-2 0  9992,2 53731  53.2193 343.4240 0001357 102.8000 257.3144 15.08856700 21460,6917.829000000001,95.436,540.633,538.756,0.0
53731.0,STARLINK-4636,PAYLOAD,2023-01-22 14:13:38,15.08854153,0.0001732,53.2192,341.3422,77.38600000000001,282.7326,0.0014169,0.00022343,0.0,0 STARLINK-4636,1 53731U 22107AH  23022.59280957  .00022343  00000-0  14169-2 0  9992,2 53731  53.2192 341.3422 0001732  77.3860 282.7326 15.08854153 21537,6917.837,95.437,540.9,538.504,0.0
53731.0,STARLINK-4636,PAYLOAD,2023-01-23 06:07:30,15.08842295,0.0001119,53.2182,338.3688,87.7195,272.3925,0.0025309,0.00040224,0.0,0 STARLINK-4636,1 53731U 22107AH  23023.25521687  .00040224  00000-0  25309-2 0  9990,2 53731  53.2182 338.3688 0001119  87.7195 272.3925 15.08842295 21636,6917.8730000000005,95.437,540.512,538.964,0.0
53731.0,STARLINK-4636,PAYLOAD,2023-01-23 14:04:27,15.08833413,0.0001851,53.2183,336.8814,79.0883,281.0318,0.0014173,0.00022336,0.0,0 STARLINK-4636,1 53731U 22107AH  23023.58642465  .00022336  00000-0  14173-2 0  9995,2 53731  53.2183 336.8814 0001851  79.0883 281.0318 15.08833413 21682,6917.901,95.438,541.0459999999999,538.485,0.0
53731.0,STARLINK-4636,PAYLOAD,2023-01-24 04:22:54,15.08870714,0.0001345,53.2183,334.2084,68.8743,291.2393,0.0023515,0.00037366,0.0,0 STARLINK-4636,1 53731U 22107AH  23024.18257774  .00037366  00000-0  23515-2 0  9996,2 53731  53.2183 334.2084 0001345  68.8743 291.2393 15.08870714 21773,6917.786999999999,95.436,540.582,538.721,0.0
53731.0,STARLINK-4636,PAYLOAD,2023-01-25 02:38:19,15.0884665,0.0001240999999999,53.2182,330.0433,90.47,269.6435,0.0014622,0.00023064,0.0,0 STARLINK-4636,1 53731U 22107AH  23025.10994365  .00023064  00000-0  14622-2 0  9992,2 53731  53.2182 330.0433 0001241  90.4700 269.6435 15.08846650 21917,6917.86,95.437,540.5840000000001,538.867,0.0
53731.0,STARLINK-4636,PAYLOAD,2023-01-25 13:46:01,15.08842287,0.0001399,53.2193,327.963,52.0931,308.0187,0.00089922,0.00014053,0.0,0 STARLINK-4636,1 53731U 22107AH  23025.57362500  .00014053  00000-0  89922-3 0  9997,2 53731  53.2193 327.9630 0001399  52.0931 308.0187 15.08842287 21988,6917.8730000000005,95.437,540.706,538.771,0.0
53731.0,STARLINK-4636,PAYLOAD,2023-01-26 02:29:06,15.08847214,0.0001245,53.2184,325.583,86.238,273.8754,0.001331,0.00020962,0.0,0 STARLINK-4636,1 53731U 22107AH  23026.10354521  .00020962  00000-0  13310-2 0  9994,2 53731  53.2184 325.5830 0001245  86.2380 273.8754 15.08847214 22694,6917.858,95.437,540.585,538.862,0.0
